[{"OBJECT_NAME":"STARLINK-1733","OBJECT_ID":"2020-070AJ","EPOCH":"2026-03-10T00:00:02.999808","MEAN_MOTION":15.74070769,"ECCENTRICITY":0.00019603,"INCLINATION":53.0418,"RA_OF_ASC_NODE":105.8439,"ARG_OF_PERICENTER":358.1851,"MEAN_ANOMALY":270.2405,"EPHEMERIS_TYPE":0,"CLASSIFICATION_TYPE":"U","NORAD_CAT_ID":46564,"ELEMENT_SET_NO":999,"REV_AT_EPOCH":596,"BSTAR":0.0010340128,"MEAN_MOTION_DOT":0.0015282,"MEAN_MOTION_DDOT":0},{"OBJECT_NAME":"STARLINK-11585 [DTC]","OBJECT_ID":"2025-057C","EPOCH":"2026-03-09T23:16:22.908576","MEAN_MOTION":15.71032193,"ECCENTRICITY":0.00034909,"INCLINATION":42.9995,"RA_OF_ASC_NODE":262.6653,"ARG_OF_PERICENTER":258.1351,"MEAN_ANOMALY":101.9125,"EPHEMERIS_TYPE":0,"CLASSIFICATION_TYPE":"U","NORAD_CAT_ID":63309,"ELEMENT_SET_NO":999,"REV_AT_EPOCH":5725,"BSTAR":0.0016574271,"MEAN_MOTION_DOT":0.00219738,"MEAN_MOTION_DDOT":0}]
